{
    "type": "FeatureCollection",
    "features": [
        {
            "type": "Feature",
            "properties": {
                "id": "web-maps",
                "name": "Web Mapping Project",
                "description": "Interactive Leaflet and Mapbox web applications integrated into GIS workflows."
            },
            "geometry": {
                "type": "Point",
                "coordinates": [
                    -3.7038,
                    40.4168
                ]
            }
        },
        {
            "type": "Feature",
            "properties": {
                "id": "cartography",
                "name": "Cartography Project",
                "description": "High-quality static and digital cartography using QGIS, ArcGIS Pro, and design principles."
            },
            "geometry": {
                "type": "Point",
                "coordinates": [
                    2.1734,
                    41.3851
                ]
            }
        },
        {
            "type": "Feature",
            "properties": {
                "id": "spatial-analysis",
                "name": "Spatial Analysis Project",
                "description": "Advanced geospatial analysis including suitability modeling and spatial statistics."
            },
            "geometry": {
                "type": "Point",
                "coordinates": [
                    -0.3763,
                    39.4699
                ]
            }
        }
    ]
}